{
  "type": "FeatureCollection",
  "features": [
    {
      "type": "Feature",
      "properties": {
        "norad_id": 57400,
        "name": "TIANMU-1 08",
        "group": "weather",
        "lat": 56.93190379485599,
        "lon": 39.427290619957944,
        "alt_km": 471.0912463155355,
        "timestamp": "2025-12-27T10:28:58.433687+00:00",
        "meta_object_name": "TIANMU-1 08",
        "meta_object_id": "2023-101B",
        "meta_epoch": "2025-12-27T03:56:46.078080",
        "meta_mean_motion": 15.28261437,
        "meta_eccentricity": 0.00068,
        "meta_inclination": 97.2846,
        "meta_ra_of_asc_node": 50.4914,
        "meta_arg_of_pericenter": 42.8404,
        "meta_mean_anomaly": 317.3365,
        "meta_ephemeris_type": 0,
        "meta_classification_type": "U",
        "meta_norad_cat_id": 57400,
        "meta_element_set_no": 999,
        "meta_rev_at_epoch": 13535,
        "meta_bstar": 0.00032168,
        "meta_mean_motion_dot": 8.792e-05,
        "meta_mean_motion_ddot": 0,
        "tle_line1": "1 57400U 23101B   25361.16442220  .00008792  00000+0  32168-3 0  9999",
        "tle_line2": "2 57400  97.2846  50.4914 0006800  42.8404 317.3365 15.28261437135357"
      },
      "geometry": {
        "type": "Point",
        "coordinates": [
          39.427290619957944,
          56.93190379485599
        ]
      }
    },
    {
      "type": "Feature",
      "properties": {
        "norad_id": 57401,
        "name": "TIANMU-1 09",
        "group": "weather",
        "lat": 47.264354439243384,
        "lon": -121.7829695056088,
        "alt_km": 476.7087220980038,
        "timestamp": "2025-12-27T10:28:58.433704+00:00",
        "meta_object_name": "TIANMU-1 09",
        "meta_object_id": "2023-101C",
        "meta_epoch": "2025-12-27T03:37:17.662368",
        "meta_mean_motion": 15.28298293,
        "meta_eccentricity": 0.0006067,
        "meta_inclination": 97.2803,
        "meta_ra_of_asc_node": 49.9841,
        "meta_arg_of_pericenter": 43.9084,
        "meta_mean_anomaly": 316.2637,
        "meta_ephemeris_type": 0,
        "meta_classification_type": "U",
        "meta_norad_cat_id": 57401,
        "meta_element_set_no": 999,
        "meta_rev_at_epoch": 13535,
        "meta_bstar": 0.00033578,
        "meta_mean_motion_dot": 9.19e-05,
        "meta_mean_motion_ddot": 0,
        "tle_line1": "1 57401U 23101C   25361.15089887  .00009190  00000+0  33578-3 0  9994",
        "tle_line2": "2 57401  97.2803  49.9841 0006067  43.9084 316.2637 15.28298293135354"
      },
      "geometry": {
        "type": "Point",
        "coordinates": [
          -121.7829695056088,
          47.264354439243384
        ]
      }
    },
    {
      "type": "Feature",
      "properties": {
        "norad_id": 57402,
        "name": "TIANMU-1 10",
        "group": "weather",
        "lat": -55.89490278105373,
        "lon": 62.023144166748196,
        "alt_km": 488.61840789909456,
        "timestamp": "2025-12-27T10:28:58.433723+00:00",
        "meta_object_name": "TIANMU-1 10",
        "meta_object_id": "2023-101D",
        "meta_epoch": "2025-12-27T04:26:39.939936",
        "meta_mean_motion": 15.28290635,
        "meta_eccentricity": 0.0007767,
        "meta_inclination": 97.2883,
        "meta_ra_of_asc_node": 50.8827,
        "meta_arg_of_pericenter": 40.9462,
        "meta_mean_anomaly": 319.236,
        "meta_ephemeris_type": 0,
        "meta_classification_type": "U",
        "meta_norad_cat_id": 57402,
        "meta_element_set_no": 999,
        "meta_rev_at_epoch": 13535,
        "meta_bstar": 0.00032102,
        "meta_mean_motion_dot": 8.783e-05,
        "meta_mean_motion_ddot": 0,
        "tle_line1": "1 57402U 23101D   25361.18518449  .00008783  00000+0  32102-3 0  9998",
        "tle_line2": "2 57402  97.2883  50.8827 0007767  40.9462 319.2360 15.28290635135351"
      },
      "geometry": {
        "type": "Point",
        "coordinates": [
          62.023144166748196,
          -55.89490278105373
        ]
      }
    },
    {
      "type": "Feature",
      "properties": {
        "norad_id": 57490,
        "name": "FENGYUN 3F",
        "group": "weather",
        "lat": -62.47121873723389,
        "lon": -127.60574789801746,
        "alt_km": 833.2221243570102,
        "timestamp": "2025-12-27T10:28:58.433742+00:00",
        "meta_object_name": "FENGYUN 3F",
        "meta_object_id": "2023-111A",
        "meta_epoch": "2025-12-27T04:15:53.633376",
        "meta_mean_motion": 14.19897411,
        "meta_eccentricity": 8.67e-05,
        "meta_inclination": 98.7064,
        "meta_ra_of_asc_node": 69.2369,
        "meta_arg_of_pericenter": 118.0254,
        "meta_mean_anomaly": 242.101,
        "meta_ephemeris_type": 0,
        "meta_classification_type": "U",
        "meta_norad_cat_id": 57490,
        "meta_element_set_no": 999,
        "meta_rev_at_epoch": 12445,
        "meta_bstar": 6.0048e-05,
        "meta_mean_motion_dot": 8.4e-07,
        "meta_mean_motion_ddot": 0,
        "tle_line1": "1 57490U 23111A   25361.17770409  .00000084  00000+0  60048-4 0  9998",
        "tle_line2": "2 57490  98.7064  69.2369 0000867 118.0254 242.1010 14.19897411124459"
      },
      "geometry": {
        "type": "Point",
        "coordinates": [
          -127.60574789801746,
          -62.47121873723389
        ]
      }
    },
    {
      "type": "Feature",
      "properties": {
        "norad_id": 58584,
        "name": "ARKTIKA-M 2",
        "group": "weather",
        "lat": 59.3062230777165,
        "lon": -128.42089869500867,
        "alt_km": 35808.885304874,
        "timestamp": "2025-12-27T10:28:58.433761+00:00",
        "meta_object_name": "ARKTIKA-M 2",
        "meta_object_id": "2023-198A",
        "meta_epoch": "2025-12-26T18:51:48.111264",
        "meta_mean_motion": 2.00602169,
        "meta_eccentricity": 0.6866198,
        "meta_inclination": 63.2254,
        "meta_ra_of_asc_node": 173.363,
        "meta_arg_of_pericenter": 268.0478,
        "meta_mean_anomaly": 18.8426,
        "meta_ephemeris_type": 0,
        "meta_classification_type": "U",
        "meta_norad_cat_id": 58584,
        "meta_element_set_no": 999,
        "meta_rev_at_epoch": 1486,
        "meta_bstar": 0,
        "meta_mean_motion_dot": 2.36e-06,
        "meta_mean_motion_ddot": 0,
        "tle_line1": "1 58584U 23198A   25360.78597351  .00000236  00000+0  00000+0 0  9993",
        "tle_line2": "2 58584  63.2254 173.3630 6866198 268.0478  18.8426  2.00602169 14860"
      },
      "geometry": {
        "type": "Point",
        "coordinates": [
          -128.42089869500867,
          59.3062230777165
        ]
      }
    },
    {
      "type": "Feature",
      "properties": {
        "norad_id": 58645,
        "name": "TIANMU-1 11",
        "group": "weather",
        "lat": -60.97516943976703,
        "lon": 34.273044951609464,
        "alt_km": 495.3358377980185,
        "timestamp": "2025-12-27T10:28:58.433779+00:00",
        "meta_object_name": "TIANMU-1 11",
        "meta_object_id": "2023-205A",
        "meta_epoch": "2025-12-27T04:27:13.089024",
        "meta_mean_motion": 15.2477632,
        "meta_eccentricity": 0.0007601,
        "meta_inclination": 97.3601,
        "meta_ra_of_asc_node": 20.5552,
        "meta_arg_of_pericenter": 248.3375,
        "meta_mean_anomaly": 111.7054,
        "meta_ephemeris_type": 0,
        "meta_classification_type": "U",
        "meta_norad_cat_id": 58645,
        "meta_element_set_no": 999,
        "meta_rev_at_epoch": 11129,
        "meta_bstar": 0.00029271,
        "meta_mean_motion_dot": 7.191e-05,
        "meta_mean_motion_ddot": 0,
        "tle_line1": "1 58645U 23205A   25361.18556816  .00007191  00000+0  29271-3 0  9998",
        "tle_line2": "2 58645  97.3601  20.5552 0007601 248.3375 111.7054 15.24776320111291"
      },
      "geometry": {
        "type": "Point",
        "coordinates": [
          34.273044951609464,
          -60.97516943976703
        ]
      }
    },
    {
      "type": "Feature",
      "properties": {
        "norad_id": 58646,
        "name": "TIANMU-1 12",
        "group": "weather",
        "lat": 35.34637261415581,
        "lon": -154.13795998581895,
        "alt_km": 488.8297310167918,
        "timestamp": "2025-12-27T10:28:58.433795+00:00",
        "meta_object_name": "TIANMU-1 12",
        "meta_object_id": "2023-205B",
        "meta_epoch": "2025-12-27T05:07:35.459904",
        "meta_mean_motion": 15.24663963,
        "meta_eccentricity": 0.0006136,
        "meta_inclination": 97.3589,
        "meta_ra_of_asc_node": 20.3835,
        "meta_arg_of_pericenter": 226.1207,
        "meta_mean_anomaly": 133.9525,
        "meta_ephemeris_type": 0,
        "meta_classification_type": "U",
        "meta_norad_cat_id": 58646,
        "meta_element_set_no": 999,
        "meta_rev_at_epoch": 11128,
        "meta_bstar": 0.00031998,
        "meta_mean_motion_dot": 7.839e-05,
        "meta_mean_motion_ddot": 0,
        "tle_line1": "1 58646U 23205B   25361.21360486  .00007839  00000+0  31998-3 0  9997",
        "tle_line2": "2 58646  97.3589  20.3835 0006136 226.1207 133.9525 15.24663963111285"
      },
      "geometry": {
        "type": "Point",
        "coordinates": [
          -154.13795998581895,
          35.34637261415581
        ]
      }
    }
  ]
}